{"type": "FeatureCollection", "features": [ {"type": "Feature", "properties": {"norad_id": 35480, "name": "IRIDIUM 33 DEB", "group": "iridium-33-debris", "lat": 76.94020499146235, "lon": 44.9469183374488, "alt_km": 713.082317760789, "timestamp": "2025-12-03T06:58:43.626937+00:00", "meta": {"OBJECT_NAME": "IRIDIUM 33 DEB", "OBJECT_ID": "1997-051QA", "EPOCH": "2025-12-01T21:29:27.496896", "MEAN_MOTION": 14.49686619, "ECCENTRICITY": 0.00155495, "INCLINATION": 86.3575, "RA_OF_ASC_NODE": 29.6125, "ARG_OF_PERICENTER": 136.7189, "MEAN_ANOMALY": 223.524, "EPHEMERIS_TYPE": 0, "CLASSIFICATION_TYPE": "U", "NORAD_CAT_ID": 35480, "ELEMENT_SET_NO": 999, "REV_AT_EPOCH": 86874, "BSTAR": 0.000651702, "MEAN_MOTION_DOT": 2.53e-05, "MEAN_MOTION_DDOT": 0}, "tle": {"line1": "1 35480U 97051QA  25335.89545714  .00002530  00000+0  65170-3 0  9994", "line2": "2 35480  86.3575  29.6125 0015549 136.7189 223.5240 14.49686619868745"}}, "geometry": {"type": "Point", "coordinates": [44.9469183374488, 76.94020499146235]}}, {"type": "Feature", "properties": {"norad_id": 35484, "name": "IRIDIUM 33 DEB", "group": "iridium-33-debris", "lat": 36.192561039938425, "lon": -0.16816880979318533, "alt_km": 579.4896116967102, "timestamp": "2025-12-03T06:58:43.626948+00:00", "meta": {"OBJECT_NAME": "IRIDIUM 33 DEB", "OBJECT_ID": "1997-051QE", "EPOCH": "2025-12-01T19:32:14.692416", "MEAN_MOTION": 14.97587734, "ECCENTRICITY": 0.00218288, "INCLINATION": 86.3628, "RA_OF_ASC_NODE": 357.8533, "ARG_OF_PERICENTER": 162.6444, "MEAN_ANOMALY": 197.5538, "EPHEMERIS_TYPE": 0, "CLASSIFICATION_TYPE": "U", "NORAD_CAT_ID": 35484, "ELEMENT_SET_NO": 999, "REV_AT_EPOCH": 61852, "BSTAR": 0.0025030806, "MEAN_MOTION_DOT": 0.00029486, "MEAN_MOTION_DDOT": 0}, "tle": {"line1": "1 35484U 97051QE  25335.81405894  .00029486  00000+0  25031-2 0  9994", "line2": "2 35484  86.3628 357.8533 0021828 162.6444 197.5538 14.97587734618526"}}, "geometry": {"type": "Point", "coordinates": [-0.16816880979318533, 36.192561039938425]}}, {"type": "Feature", "properties": {"norad_id": 35488, "name": "IRIDIUM 33 DEB", "group": "iridium-33-debris", "lat": -53.85812935516073, "lon": -59.8175782693826, "alt_km": 640.7418024073986, "timestamp": "2025-12-03T06:58:43.626958+00:00", "meta": {"OBJECT_NAME": "IRIDIUM 33 DEB", "OBJECT_ID": "1997-051QJ", "EPOCH": "2025-12-02T15:01:28.223904", "MEAN_MOTION": 14.82653192, "ECCENTRICITY": 0.0030768, "INCLINATION": 86.3233, "RA_OF_ASC_NODE": 305.5399, "ARG_OF_PERICENTER": 74.7602, "MEAN_ANOMALY": 285.7019, "EPHEMERIS_TYPE": 0, "CLASSIFICATION_TYPE": "U", "NORAD_CAT_ID": 35488, "ELEMENT_SET_NO": 999, "REV_AT_EPOCH": 88116, "BSTAR": 0.0017350437, "MEAN_MOTION_DOT": 0.00014134, "MEAN_MOTION_DDOT": 0}, "tle": {"line1": "1 35488U 97051QJ  25336.62602111  .00014134  00000+0  17350-2 0  9998", "line2": "2 35488  86.3233 305.5399 0030768  74.7602 285.7019 14.82653192881166"}}, "geometry": {"type": "Point", "coordinates": [-59.8175782693826, -53.85812935516073]}}, {"type": "Feature", "properties": {"norad_id": 35616, "name": "IRIDIUM 33 DEB", "group": "iridium-33-debris", "lat": 32.02424289079678, "lon": 167.79234235294714, "alt_km": 619.406166619583, "timestamp": "2025-12-03T06:58:43.626968+00:00", "meta": {"OBJECT_NAME": "IRIDIUM 33 DEB", "OBJECT_ID": "1997-051QN", "EPOCH": "2025-12-01T18:38:49.911648", "MEAN_MOTION": 14.81359224, "ECCENTRICITY": 0.00086191, "INCLINATION": 86.3548, "RA_OF_ASC_NODE": 350.7677, "ARG_OF_PERICENTER": 204.4295, "MEAN_ANOMALY": 155.6519, "EPHEMERIS_TYPE": 0, "CLASSIFICATION_TYPE": "U", "NORAD_CAT_ID": 35616, "ELEMENT_SET_NO": 999, "REV_AT_EPOCH": 87412, "BSTAR": 0.0016385024, "MEAN_MOTION_DOT": 0.00012841, "MEAN_MOTION_DDOT": 0}, "tle": {"line1": "1 35616U 97051QN  25335.77696657  .00012841  00000+0  16385-2 0  9994", "line2": "2 35616  86.3548 350.7677 0008619 204.4295 155.6519 14.81359224874125"}}, "geometry": {"type": "Point", "coordinates": [167.79234235294714, 32.02424289079678]}}, {"type": "Feature", "properties": {"norad_id": 35618, "name": "IRIDIUM 33 DEB", "group": "iridium-33-debris", "lat": -10.942336791170579, "lon": 178.34212098718865, "alt_km": 739.266752078438, "timestamp": "2025-12-03T06:58:43.626978+00:00", "meta": {"OBJECT_NAME": "IRIDIUM 33 DEB", "OBJECT_ID": "1997-051QQ", "EPOCH": "2025-11-27T19:27:47.606688", "MEAN_MOTION": 14.52216193, "ECCENTRICITY": 0.00308317, "INCLINATION": 86.3414, "RA_OF_ASC_NODE": 0.0275, "ARG_OF_PERICENTER": 70.0508, "MEAN_ANOMALY": 290.4015, "EPHEMERIS_TYPE": 0, "CLASSIFICATION_TYPE": "U", "NORAD_CAT_ID": 35618, "ELEMENT_SET_NO": 999, "REV_AT_EPOCH": 65177, "BSTAR": 0.00046503481, "MEAN_MOTION_DOT": 1.919e-05, "MEAN_MOTION_DDOT": 0}, "tle": {"line1": "1 35618U 97051QQ  25331.81096767  .00001919  00000+0  46503-3 0  9993", "line2": "2 35618  86.3414   0.0275 0030831  70.0508 290.4015 14.52216193651771"}}, "geometry": {"type": "Point", "coordinates": [178.34212098718865, -10.942336791170579]}}, {"type": "Feature", "properties": {"norad_id": 35620, "name": "IRIDIUM 33 DEB", "group": "iridium-33-debris", "lat": -54.37852120798529, "lon": -143.6207216540878, "alt_km": 673.717890068293, "timestamp": "2025-12-03T06:58:43.626988+00:00", "meta": {"OBJECT_NAME": "IRIDIUM 33 DEB", "OBJECT_ID": "1997-051QS", "EPOCH": "2025-12-02T09:30:29.783520", "MEAN_MOTION": 14.37436456, "ECCENTRICITY": 0.01454961, "INCLINATION": 86.3879, "RA_OF_ASC_NODE": 221.8141, "ARG_OF_PERICENTER": 292.9004, "MEAN_ANOMALY": 65.689, "EPHEMERIS_TYPE": 0, "CLASSIFICATION_TYPE": "U", "NORAD_CAT_ID": 35620, "ELEMENT_SET_NO": 999, "REV_AT_EPOCH": 59817, "BSTAR": 0.0068357754, "MEAN_MOTION_DOT": 0.00023164, "MEAN_MOTION_DDOT": 0}, "tle": {"line1": "1 35620U 97051QS  25336.39617805  .00023164  00000+0  68358-2 0  9993", "line2": "2 35620  86.3879 221.8141 0145496 292.9004  65.6890 14.37436456598170"}}, "geometry": {"type": "Point", "coordinates": [-143.6207216540878, -54.37852120798529]}}, {"type": "Feature", "properties": {"norad_id": 35622, "name": "IRIDIUM 33 DEB", "group": "iridium-33-debris", "lat": -50.81829175976486, "lon": -96.42216667180818, "alt_km": 560.6134357968194, "timestamp": "2025-12-03T06:58:43.626998+00:00", "meta": {"OBJECT_NAME": "IRIDIUM 33 DEB", "OBJECT_ID": "1997-051QU", "EPOCH": "2025-12-02T06:19:13.217952", "MEAN_MOTION": 15.02606041, "ECCENTRICITY": 0.0010695, "INCLINATION": 86.2044, "RA_OF_ASC_NODE": 268.7542, "ARG_OF_PERICENTER": 2.5731, "MEAN_ANOMALY": 152.2822, "EPHEMERIS_TYPE": 0, "CLASSIFICATION_TYPE": "U", "NORAD_CAT_ID": 35622, "ELEMENT_SET_NO": 999, "REV_AT_EPOCH": 87202, "BSTAR": 0.0056995, "MEAN_MOTION_DOT": 0.00076695, "MEAN_MOTION_DDOT": 0}, "tle": {"line1": "1 35622U 97051QU  25336.26334743  .00076695  00000+0  56995-2 0  9999", "line2": "2 35622  86.2044 268.7542 0010695   2.5731 152.2822 15.02606041872023"}}, "geometry": {"type": "Point", "coordinates": [-96.42216667180818, -50.81829175976486]}}, {"type": "Feature", "properties": {"norad_id": 35628, "name": "IRIDIUM 33 DEB", "group": "iridium-33-debris", "lat": -68.30764063858611, "lon": 4.07621649691341, "alt_km": 676.0617709946109, "timestamp": "2025-12-03T06:58:43.627009+00:00", "meta": {"OBJECT_NAME": "IRIDIUM 33 DEB", "OBJECT_ID": "1997-051RA", "EPOCH": "2025-12-02T19:50:02.046048", "MEAN_MOTION": 14.67345428, "ECCENTRICITY": 0.0011633, "INCLINATION": 86.3582, "RA_OF_ASC_NODE": 13.4962, "ARG_OF_PERICENTER": 17.351, "MEAN_ANOMALY": 342.81, "EPHEMERIS_TYPE": 0, "CLASSIFICATION_TYPE": "U", "NORAD_CAT_ID": 35628, "ELEMENT_SET_NO": 999, "REV_AT_EPOCH": 86301, "BSTAR": 0.0016794, "MEAN_MOTION_DOT": 9.517e-05, "MEAN_MOTION_DDOT": 0}, "tle": {"line1": "1 35628U 97051RA  25336.82641257  .00009517  00000+0  16794-2 0  9990", "line2": "2 35628  86.3582  13.4962 0011633  17.3510 342.8100 14.67345428863014"}}, "geometry": {"type": "Point", "coordinates": [4.07621649691341, -68.30764063858611]}}, {"type": "Feature", "properties": {"norad_id": 35631, "name": "IRIDIUM 33 DEB", "group": "iridium-33-debris", "lat": 26.629362989295203, "lon": -156.78021701479096, "alt_km": 720.9876052754371, "timestamp": "2025-12-03T06:58:43.627019+00:00", "meta": {"OBJECT_NAME": "IRIDIUM 33 DEB", "OBJECT_ID": "1997-051RD", "EPOCH": "2025-12-01T09:32:13.809120", "MEAN_MOTION": 14.47260749, "ECCENTRICITY": 0.00179714, "INCLINATION": 86.3683, "RA_OF_ASC_NODE": 25.8593, "ARG_OF_PERICENTER": 152.8458, "MEAN_ANOMALY": 221.75, "EPHEMERIS_TYPE": 0, "CLASSIFICATION_TYPE": "U", "NORAD_CAT_ID": 35631, "ELEMENT_SET_NO": 999, "REV_AT_EPOCH": 87033, "BSTAR": 0.00039861832, "MEAN_MOTION_DOT": 1.48e-05, "MEAN_MOTION_DDOT": 0}, "tle": {"line1": "1 35631U 97051RD  25335.39738205  .00001480  00000+0  39862-3 0  9998", "line2": "2 35631  86.3683  25.8593 0017971 152.8458 221.7500 14.47260749870336"}}, "geometry": {"type": "Point", "coordinates": [-156.78021701479096, 26.629362989295203]}}, {"type": "Feature", "properties": {"norad_id": 35680, "name": "IRIDIUM 33 DEB", "group": "iridium-33-debris", "lat": -55.88290675594417, "lon": 19.93164829866116, "alt_km": 722.592253252943, "timestamp": "2025-12-03T06:58:43.627040+00:00", "meta": {"OBJECT_NAME": "IRIDIUM 33 DEB", "OBJECT_ID": "1997-051RJ", "EPOCH": "2025-12-01T22:00:09.279648", "MEAN_MOTION": 14.20616647, "ECCENTRICITY": 0.01501261, "INCLINATION": 86.103, "RA_OF_ASC_NODE": 26.3138, "ARG_OF_PERICENTER": 313.2693, "MEAN_ANOMALY": 168.1986, "EPHEMERIS_TYPE": 0, "CLASSIFICATION_TYPE": "U", "NORAD_CAT_ID": 35680, "ELEMENT_SET_NO": 999, "REV_AT_EPOCH": 60547, "BSTAR": 0.0036692718, "MEAN_MOTION_DOT": 8.864e-05, "MEAN_MOTION_DDOT": 0}, "tle": {"line1": "1 35680U 97051RJ  25335.91677407  .00008864  00000+0  36693-2 0  9997", "line2": "2 35680  86.1030  26.3138 0150126 313.2693 168.1986 14.20616647605475"}}, "geometry": {"type": "Point", "coordinates": [19.93164829866116, -55.88290675594417]}}]}